{
    "links": {
        "self": "http://www.neowsapp.com/rest/v1/neo/3441113?api_key=iIulBulltgU6a56xZRHN4H3l9WmuAYTsLGpBGhQ2"
    },
    "id": "3441113",
    "neo_reference_id": "3441113",
    "name": "(2008 XL1)",
    "designation": "2008 XL1",
    "nasa_jpl_url": "http://ssd.jpl.nasa.gov/sbdb.cgi?sstr=3441113",
    "absolute_magnitude_h": 22.8,
    "estimated_diameter": {
        "kilometers": {
            "estimated_diameter_min": 0.0732073989,
            "estimated_diameter_max": 0.1636967205
        },
        "meters": {
            "estimated_diameter_min": 73.2073989347,
            "estimated_diameter_max": 163.696720474
        },
        "miles": {
            "estimated_diameter_min": 0.0454889547,
            "estimated_diameter_max": 0.1017163949
        },
        "feet": {
            "estimated_diameter_min": 240.181762721,
            "estimated_diameter_max": 537.0627483999
        }
    },
    "is_potentially_hazardous_asteroid": false,
    "close_approach_data": [
        {
            "close_approach_date": "2008-11-25",
            "close_approach_date_full": "2008-Nov-25 01:29",
            "epoch_date_close_approach": 1227576540000,
            "relative_velocity": {
                "kilometers_per_second": "14.0677334888",
                "kilometers_per_hour": "50643.8405597509",
                "miles_per_hour": "31468.1130411408"
            },
            "miss_distance": {
                "astronomical": "0.2276924201",
                "lunar": "88.5723514189",
                "kilometers": "34062301.062105187",
                "miles": "21165332.4304861006"
            },
            "orbiting_body": "Earth"
        }
    ],
    "orbital_data": {
        "orbit_id": "8",
        "orbit_determination_date": "2017-04-06 09:01:57",
        "first_observation_date": "2008-12-03",
        "last_observation_date": "2008-12-21",
        "data_arc_in_days": 18,
        "observations_used": 20,
        "orbit_uncertainty": "9",
        "minimum_orbit_intersection": ".213238",
        "jupiter_tisserand_invariant": "4.576",
        "epoch_osculation": "2454808.5",
        "eccentricity": ".1974123158911253",
        "semi_major_axis": "1.419975138119393",
        "inclination": "27.17905056531004",
        "ascending_node_longitude": "248.3783383880561",
        "orbital_period": "618.0442035505105",
        "perihelion_distance": "1.139654557595423",
        "perihelion_argument": "130.2756751271288",
        "aphelion_distance": "1.700295718643362",
        "perihelion_time": "2454739.806941119848",
        "mean_anomaly": "40.01251213875945",
        "mean_motion": ".5824826087388076",
        "equinox": "J2000",
        "orbit_class": {
            "orbit_class_type": "AMO",
            "orbit_class_description": "Near-Earth asteroid orbits similar to that of 1221 Amor",
            "orbit_class_range": "1.017 AU < q (perihelion) < 1.3 AU"
        }
    },
    "is_sentry_object": false
}